{"fetched_at":"2026-07-15T17:46:51.301Z","source":"https://celestrak.org/NORAD/elements/gp.php?GROUP=spire&FORMAT=JSON","constellation":"spire","records":[{"OBJECT_NAME":"LEMUR-1","OBJECT_ID":"2014-033AL","EPOCH":"2026-07-14T23:34:10.320096","CLASSIFICATION_TYPE":"U","MEAN_MOTION":14.85336489,"ECCENTRICITY":0.0047801,"INCLINATION":97.7909,"RA_OF_ASC_NODE":345.1759,"ARG_OF_PERICENTER":348.6547,"MEAN_ANOMALY":11.3586,"EPHEMERIS_TYPE":0,"NORAD_CAT_ID":40044,"ELEMENT_SET_NO":999,"REV_AT_EPOCH":64959,"BSTAR":0.000095604,"MEAN_MOTION_DOT":0.00000783,"MEAN_MOTION_DDOT":0},{"OBJECT_NAME":"LEMUR-2-GREENBERG","OBJECT_ID":"2017-042N","EPOCH":"2026-07-15T01:07:33.602016","CLASSIFICATION_TYPE":"U","MEAN_MOTION":15.32149662,"ECCENTRICITY":0.0007195,"INCLINATION":97.3827,"RA_OF_ASC_NODE":16.561,"ARG_OF_PERICENTER":260.7721,"MEAN_ANOMALY":99.2707,"EPHEMERIS_TYPE":0,"NORAD_CAT_ID":42837,"ELEMENT_SET_NO":999,"REV_AT_EPOCH":49265,"BSTAR":0.00032403,"MEAN_MOTION_DOT":0.0000999,"MEAN_MOTION_DDOT":0},{"OBJECT_NAME":"LEMUR-2-ANDIS","OBJECT_ID":"2017-042P","EPOCH":"2026-07-15T00:14:31.947072","CLASSIFICATION_TYPE":"U","MEAN_MOTION":15.35919403,"ECCENTRICITY":0.0007198,"INCLINATION":97.3676,"RA_OF_ASC_NODE":16.8088,"ARG_OF_PERICENTER":258.4412,"MEAN_ANOMALY":101.6024,"EPHEMERIS_TYPE":0,"NORAD_CAT_ID":42838,"ELEMENT_SET_NO":999,"REV_AT_EPOCH":49272,"BSTAR":0.00035686,"MEAN_MOTION_DOT":0.00012411,"MEAN_MOTION_DDOT":0},{"OBJECT_NAME":"LEMUR-2-MONSON","OBJECT_ID":"2017-042Q","EPOCH":"2026-07-14T23:39:32.460768","CLASSIFICATION_TYPE":"U","MEAN_MOTION":15.28749052,"ECCENTRICITY":0.0005287,"INCLINATION":97.4087,"RA_OF_ASC_NODE":16.4294,"ARG_OF_PERICENTER":246.4562,"MEAN_ANOMALY":113.6122,"EPHEMERIS_TYPE":0,"NORAD_CAT_ID":42839,"ELEMENT_SET_NO":999,"REV_AT_EPOCH":49241,"BSTAR":0.00028429,"MEAN_MOTION_DOT":0.00007873,"MEAN_MOTION_DDOT":0},{"OBJECT_NAME":"LEMUR-2-FURIAUS","OBJECT_ID":"2017-042R","EPOCH":"2026-07-15T01:26:02.139936","CLASSIFICATION_TYPE":"U","MEAN_MOTION":15.31128008,"ECCENTRICITY":0.0006026,"INCLINATION":97.3772,"RA_OF_ASC_NODE":14.4663,"ARG_OF_PERICENTER":330.2641,"MEAN_ANOMALY":29.8256,"EPHEMERIS_TYPE":0,"NORAD_CAT_ID":42840,"ELEMENT_SET_NO":999,"REV_AT_EPOCH":49247,"BSTAR":0.00033189,"MEAN_MOTION_DOT":0.00009911,"MEAN_MOTION_DDOT":0},{"OBJECT_NAME":"LEMUR-2-PETERG","OBJECT_ID":"2017-042S","EPOCH":"2026-07-15T00:15:38.201184","CLASSIFICATION_TYPE":"U","MEAN_MOTION":15.35024382,"ECCENTRICITY":0.0003278,"INCLINATION":97.3988,"RA_OF_ASC_NODE":21.1098,"ARG_OF_PERICENTER":220.8339,"MEAN_ANOMALY":139.2659,"EPHEMERIS_TYPE":0,"NORAD_CAT_ID":42841,"ELEMENT_SET_NO":999,"REV_AT_EPOCH":49270,"BSTAR":0.00033401,"MEAN_MOTION_DOT":0.00011275,"MEAN_MOTION_DDOT":0},{"OBJECT_NAME":"LEMUR-2-DEMBITZ","OBJECT_ID":"2017-042T","EPOCH":"2026-07-15T00:20:21.073056","CLASSIFICATION_TYPE":"U","MEAN_MOTION":15.31106592,"ECCENTRICITY":0.0005062,"INCLINATION":97.3823,"RA_OF_ASC_NODE":17.465,"ARG_OF_PERICENTER":275.8916,"MEAN_ANOMALY":84.1748,"EPHEMERIS_TYPE":0,"NORAD_CAT_ID":42842,"ELEMENT_SET_NO":999,"REV_AT_EPOCH":49260,"BSTAR":0.00030371,"MEAN_MOTION_DOT":0.00009054,"MEAN_MOTION_DDOT":0},{"OBJECT_NAME":"LEMUR-2-ZACHARY","OBJECT_ID":"2017-042W","EPOCH":"2026-07-15T04:20:48.893280","CLASSIFICATION_TYPE":"U","MEAN_MOTION":15.52713433,"ECCENTRICITY":0.0002514,"INCLINATION":97.3567,"RA_OF_ASC_NODE":28.4612,"ARG_OF_PERICENTER":245.5131,"MEAN_ANOMALY":114.586,"EPHEMERIS_TYPE":0,"NORAD_CAT_ID":42845,"ELEMENT_SET_NO":999,"REV_AT_EPOCH":49354,"BSTAR":0.00048083,"MEAN_MOTION_DOT":0.00029645,"MEAN_MOTION_DDOT":0},{"OBJECT_NAME":"LEMUR-2-AMANDA-SVANTE","OBJECT_ID":"2021-034B","EPOCH":"2026-07-15T04:33:52.594848","CLASSIFICATION_TYPE":"U","MEAN_MOTION":15.35959572,"ECCENTRICITY":0.0004594,"INCLINATION":97.5753,"RA_OF_ASC_NODE":275.2472,"ARG_OF_PERICENTER":143.0554,"MEAN_ANOMALY":217.1007,"EPHEMERIS_TYPE":0,"NORAD_CAT_ID":48269,"ELEMENT_SET_NO":999,"REV_AT_EPOCH":28535,"BSTAR":0.00056242,"MEAN_MOTION_DOT":0.00019638,"MEAN_MOTION_DDOT":0},{"OBJECT_NAME":"LEMUR-2-SPECIAL-K","OBJECT_ID":"2021-034F","EPOCH":"2026-07-15T04:57:14.928192","CLASSIFICATION_TYPE":"U","MEAN_MOTION":15.74724524,"ECCENTRICITY":0.0006361,"INCLINATION":97.5637,"RA_OF_ASC_NODE":285.3,"ARG_OF_PERICENTER":214.5066,"MEAN_ANOMALY":145.5786,"EPHEMERIS_TYPE":0,"NORAD_CAT_ID":48273,"ELEMENT_SET_NO":999,"REV_AT_EPOCH":28608,"BSTAR":0.0012117,"MEAN_MOTION_DOT":0.00180994,"MEAN_MOTION_DDOT":0},{"OBJECT_NAME":"LEMUR-2-EMBRIONOVIS","OBJECT_ID":"2023-084AQ","EPOCH":"2026-07-14T22:04:28.394112","CLASSIFICATION_TYPE":"U","MEAN_MOTION":15.3822527,"ECCENTRICITY":0.0008298,"INCLINATION":97.6312,"RA_OF_ASC_NODE":341.2012,"ARG_OF_PERICENTER":206.9114,"MEAN_ANOMALY":153.1701,"EPHEMERIS_TYPE":0,"NORAD_CAT_ID":56970,"ELEMENT_SET_NO":999,"REV_AT_EPOCH":17194,"BSTAR":0.00021306,"MEAN_MOTION_DOT":0.00007943,"MEAN_MOTION_DDOT":0},{"OBJECT_NAME":"LEMUR-2-DEVERILL-M-T","OBJECT_ID":"2023-100F","EPOCH":"2026-07-15T02:25:25.110048","CLASSIFICATION_TYPE":"U","MEAN_MOTION":15.41090109,"ECCENTRICITY":0.000468,"INCLINATION":99.4454,"RA_OF_ASC_NODE":242.9511,"ARG_OF_PERICENTER":297.4251,"MEAN_ANOMALY":62.6512,"EPHEMERIS_TYPE":0,"NORAD_CAT_ID":57391,"ELEMENT_SET_NO":999,"REV_AT_EPOCH":16554,"BSTAR":0.00037445,"MEAN_MOTION_DOT":0.00015384,"MEAN_MOTION_DDOT":0},{"OBJECT_NAME":"LEMUR-2-BASS","OBJECT_ID":"2023-174D","EPOCH":"2026-07-15T03:37:22.047168","CLASSIFICATION_TYPE":"U","MEAN_MOTION":15.43993692,"ECCENTRICITY":0.0007671,"INCLINATION":97.385,"RA_OF_ASC_NODE":281.2709,"ARG_OF_PERICENTER":78.4477,"MEAN_ANOMALY":281.7632,"EPHEMERIS_TYPE":0,"NORAD_CAT_ID":58259,"ELEMENT_SET_NO":999,"REV_AT_EPOCH":14967,"BSTAR":0.00022325,"MEAN_MOTION_DOT":0.00010095,"MEAN_MOTION_DDOT":0},{"OBJECT_NAME":"LEMUR-2-JK0903EM1407","OBJECT_ID":"2023-174CJ","EPOCH":"2026-07-15T04:24:02.907072","CLASSIFICATION_TYPE":"U","MEAN_MOTION":15.53068651,"ECCENTRICITY":0.0003617,"INCLINATION":97.3926,"RA_OF_ASC_NODE":287.4707,"ARG_OF_PERICENTER":33.6015,"MEAN_ANOMALY":326.5466,"EPHEMERIS_TYPE":0,"NORAD_CAT_ID":58336,"ELEMENT_SET_NO":999,"REV_AT_EPOCH":15007,"BSTAR":0.00027342,"MEAN_MOTION_DOT":0.00017007,"MEAN_MOTION_DDOT":0},{"OBJECT_NAME":"LEMUR-2-MJR092620","OBJECT_ID":"2023-174CN","EPOCH":"2026-07-15T04:42:07.748064","CLASSIFICATION_TYPE":"U","MEAN_MOTION":15.45863269,"ECCENTRICITY":0.0005292,"INCLINATION":97.398,"RA_OF_ASC_NODE":286.7599,"ARG_OF_PERICENTER":30.7058,"MEAN_ANOMALY":329.45,"EPHEMERIS_TYPE":0,"NORAD_CAT_ID":58340,"ELEMENT_SET_NO":999,"REV_AT_EPOCH":14997,"BSTAR":0.00023445,"MEAN_MOTION_DOT":0.00011299,"MEAN_MOTION_DDOT":0},{"OBJECT_NAME":"LEMUR-2-NIMBUS2000","OBJECT_ID":"2024-022A","EPOCH":"2026-07-15T03:19:39.638208","CLASSIFICATION_TYPE":"U","MEAN_MOTION":15.41114955,"ECCENTRICITY":0.000876,"INCLINATION":97.4076,"RA_OF_ASC_NODE":46.509,"ARG_OF_PERICENTER":29.0828,"MEAN_ANOMALY":331.0905,"EPHEMERIS_TYPE":0,"NORAD_CAT_ID":58899,"ELEMENT_SET_NO":999,"REV_AT_EPOCH":13657,"BSTAR":0.00031994,"MEAN_MOTION_DOT":0.0001318,"MEAN_MOTION_DDOT":0}]}
